0 DELTA 1 DEB
1 10207U 77065AL  13283.18641407 -.00000151  00000-0 -44856-3 0  1567
2 10207 029.0938 234.0112 0693694 208.3807 286.0758 12.66306539665252
0 DELTA 1 DEB
1 10207U 77065AL  13286.10160329 -.00000092  00000-0 -32982-3 0  1573
2 10207 029.0939 221.1738 0693471 229.0620 255.5648 12.66305600665628
0 DELTA 1 DEB
1 10207U 77065AL  13288.15622994  .00000061  00000-0 -19887-4 0  1587
2 10207 029.0936 212.1262 0693297 243.6387 261.9949 12.66305044665880
0 DELTA 1 DEB
1 10207U 77065AL  13290.21182206 -.00000006  00000-0 -15357-3 0  1592
2 10207 029.0930 203.0741 0693072 258.2235 272.8201 12.66304128666144
0 DELTA 1 DEB
1 10207U 77065AL  13293.12760392  .00000002  00000-0 -13277-3 0  1609
2 10207 029.0919 190.2338 0692836 278.9191 244.9798 12.66303241666514
0 DELTA 1 DEB
1 10207U 77065AL  13295.78290875  .00000014  00000-0 -10258-3 0  1617
2 10207 029.0907 178.5398 0692522 297.7711 109.6889 12.66302159666846
